NOAA 15                 
1 25338U 98030A   22323.53884927  .00000152  00000+0  81445-4 0  9992
2 25338  98.6302 350.9473 0010025 199.9913 160.0876 14.26198004275378
NOAA 18                 
1 28654U 05018A   22323.51915197  .00000173  00000+0  11727-3 0  9990
2 28654  98.9347  33.7189 0013406 251.6200 108.3514 14.12809372901962
NOAA 19                 
1 33591U 09005A   22323.53822531  .00000196  00000+0  13054-3 0  9997
2 33591  99.1311   0.8126 0014795 111.5247 248.7503 14.12639910710341
METOP-B                 
1 38771U 12049A   22323.49148253  .00000097  00000+0  64341-4 0  9997
2 38771  98.7106  21.0446 0000480  67.1879  47.9974 14.21495136527758
SARAL                   
1 39086U 13009A   22323.43156620  .00000097  00000+0  52214-4 0  9991
2 39086  98.5460 146.7965 0001502 129.8561 230.2755 14.32047654508663
METOP-C                 
1 43689U 18087A   22323.50566509  .00000097  00000+0  64191-4 0  9992
2 43689  98.7152  21.0885 0002353 322.7153  37.3861 14.21488722209338
ANGELS                  
1 44876U 19092D   22323.07987569  .00003205  00000+0  15706-3 0  9994
2 44876  97.4743 144.6496 0011847 172.8991 187.2413 15.18813213161701
GAZELLE                 
1 54023U 22127A   22322.87322631 -.00000043  00000+0  00000+0 0  9997
2 54023  98.3161 321.1426 0013442 165.6545 194.5039 14.41654932  6072
